FENGYUN 3D              
1 43010U 17072A   26176.60432997 -.00000057  00000+0 -49748-5 0  9997
2 43010  99.0126 151.1784 0002384  48.4159 311.7220 14.19740700446184
NOAA 20 (JPSS-1)        
1 43013U 17073A   26176.45969570  .00000034  00000+0  37314-4 0  9994
2 43013  98.7772 115.8487 0000567 131.8153 228.3071 14.19513162445646
GOES 17                 
1 43226U 18022A   26176.50722700 -.00000173  00000+0  00000+0 0  9995
2 43226   0.9581  85.5723 0000648  23.1564 258.0030  1.00272912 30501
SENTINEL-3B             
1 43437U 18039A   26176.46503925  .00000097  00000+0  57924-4 0  9994
2 43437  98.6245 243.8785 0000744 105.0723 255.0540 14.26736907425307
FENGYUN 2H              
1 43491U 18050A   26176.54066663 -.00000122  00000+0  00000+0 0  9997
2 43491   3.0534  78.9832 0001655 125.1149 343.5656  1.00269775 29522
METOP-C                 
1 43689U 18087A   26176.51452937  .00000090  00000+0  61140-4 0  9996
2 43689  98.6641 235.9658 0002021 118.8760 241.2621 14.21514197396012
GEO-KOMPSAT-2A          
1 43823U 18100A   26176.55039733 -.00000334  00000+0  00000+0 0  9996
2 43823   0.0444 160.6969 0002454 290.4796 148.9093  1.00270706 27717
METEOR-M2 2             
1 44387U 19038A   26176.60395971 -.00000098  00000+0 -22708-4 0  9990
2 44387  98.9146 164.0134 0001760  35.4215 324.7080 14.24367200362495
ARKTIKA-M 1             
1 47719U 21016A   26175.46896265 -.00000298  00000+0  00000+0 0  9993
2 47719  63.2470  56.5720 7291000 269.9787  14.5750  2.00620016 38936
FENGYUN 3E              
1 49008U 21062A   26176.58726053 -.00000206  00000+0 -76195-4 0  9991
2 49008  98.7495 179.9016 0002820  71.5117 288.6366 14.19903788257779
GOES 18                 
1 51850U 22021A   26176.49786696  .00000107  00000+0  00000+0 0  9999
2 51850   0.0144 173.5411 0000635 310.4795 191.8368  1.00272786  6673
NOAA 21 (JPSS-2)        
1 54234U 22150A   26176.49231178  .00000040  00000+0  39411-4 0  9990
2 54234  98.7060 115.1419 0002161 141.0132 219.1200 14.19537898187729
METEOSAT-12 (MTG-I1)    
1 54743U 22170C   26176.31105625  .00000002  00000+0  00000+0 0  9990
2 54743   0.7475  24.3068 0003596  71.3787 289.3980  1.00275063 13059
TIANMU-1 03             
1 55973U 23039A   26176.58625308  .00017524  00000+0  34255-3 0  9995
2 55973  97.5233 350.8857 0004000  79.2418 280.9282 15.47507603182135
TIANMU-1 04             
1 55974U 23039B   26176.57247269  .00018797  00000+0  35960-3 0  9998
2 55974  97.5170 350.0255 0004474  72.7296 287.4443 15.48114178182141
TIANMU-1 05             
1 55975U 23039C   26176.56742811  .00018087  00000+0  35439-3 0  9994
2 55975  97.5214 350.4780 0004012  94.4122 265.7586 15.47432066182117
TIANMU-1 06             
1 55976U 23039D   26176.64101735  .00018620  00000+0  35744-3 0  9990
2 55976  97.5223 351.1985 0004174  89.2070 270.9658 15.48018227182158
FENGYUN 3G              
1 56232U 23055A   26176.60080971  .00026162  00000+0  41707-3 0  9994
2 56232  49.9933 302.6591 0007222 331.7912  28.2663 15.52981515181315
METEOR-M2 3             
1 57166U 23091A   26176.60020782 -.00000003  00000+0  17597-4 0  9993
2 57166  98.6079 231.4064 0004764 134.7604 225.3964 14.24047424155714
TIANMU-1 07             
1 57399U 23101A   26176.60320943  .00007505  00000+0  26173-3 0  9997
2 57399  97.2594 227.0782 0004336 104.3648 255.8074 15.29898244162935
TIANMU-1 08             
1 57400U 23101B   26176.56982800  .00007613  00000+0  26536-3 0  9994
2 57400  97.2583 226.8149 0005706  95.1480 265.0412 15.29902313162924
TIANMU-1 09             
1 57401U 23101C   26176.61847233  .00007885  00000+0  27449-3 0  9996
2 57401  97.2541 226.2740 0004904 107.9813 252.1962 15.29936584162936
TIANMU-1 10             
1 57402U 23101D   26176.58627075  .00007586  00000+0  26436-3 0  9996
2 57402  97.2621 227.3015 0006436 104.8469 255.3485 15.29908317162925
FENGYUN 3F              
1 57490U 23111A   26176.64144502  .00000038  00000+0  38282-4 0  9998
2 57490  98.6834 246.4927 0001560  87.0481 273.0874 14.19940391150063
ARKTIKA-M 2             
1 58584U 23198A   26174.74078844  .00000167  00000+0  00000+0 0  9997
2 58584  63.2421 153.6337 6904949 267.3888  18.7567  2.00611379 18452
TIANMU-1 11             
1 58645U 23205A   26176.57222840  .00006322  00000+0  24059-3 0  9997
2 58645  97.3447 197.9974 0007922 347.0217  13.0817 15.27075207138800
TIANMU-1 12             
1 58646U 23205B   26176.60831368  .00006824  00000+0  25981-3 0  9995
2 58646  97.3436 197.7870 0005722 331.1328  28.9594 15.27042632138796
TIANMU-1 13             
1 58647U 23205C   26176.57577050  .00006379  00000+0  24417-3 0  9995
2 58647  97.3464 198.0288 0005131 304.7616  55.3139 15.26894624138788
TIANMU-1 14             
1 58648U 23205D   26176.62626413  .00006426  00000+0  24558-3 0  9999
2 58648  97.3400 197.2536 0006020 310.2475  49.8237 15.26939981138793
TIANMU-1 19             
1 58660U 23208A   26176.58414468  .00009763  00000+0  32150-3 0  9990
2 58660  97.4506 292.9274 0003442 287.5865  72.5000 15.31690961138611
