OBJECT_NAME,OBJECT_ID,EPOCH,MEAN_MOTION,ECCENTRICITY,INCLINATION,RA_OF_ASC_NODE,ARG_OF_PERICENTER,MEAN_ANOMALY,EPHEMERIS_TYPE,CLASSIFICATION_TYPE,NORAD_CAT_ID,ELEMENT_SET_NO,REV_AT_EPOCH,BSTAR,MEAN_MOTION_DOT,MEAN_MOTION_DDOT
FENGYUN 3D,2017-072A,2026-06-25T14:30:14.109408,14.19740700,.0002384,99.0126,151.1784,48.4159,311.7220,0,U,43010,999,44618,-.4974783E-5,-.57E-6,0
NOAA 20 (JPSS-1),2017-073A,2026-06-25T11:01:57.708480,14.19513162,.00005674,98.7772,115.8487,131.8153,228.3071,0,U,43013,999,44564,.37314139E-4,.34E-6,0
GOES 17,2018-022A,2026-06-25T12:10:24.412800,1.00272912,.00006481,0.9581,85.5723,23.1564,258.0030,0,U,43226,999,3050,0,-.173E-5,0
SENTINEL-3B,2018-039A,2026-06-25T11:09:39.391200,14.26736907,.0000744,98.6245,243.8785,105.0723,255.0540,0,U,43437,999,42530,.57923706E-4,.97E-6,0
FENGYUN 2H,2018-050A,2026-06-25T12:58:33.596832,1.00269775,.00016558,3.0534,78.9832,125.1149,343.5656,0,U,43491,999,2952,0,-.122E-5,0
METOP-C,2018-087A,2026-06-25T12:20:55.337568,14.21514197,.0002021,98.6641,235.9658,118.8760,241.2621,0,U,43689,999,39601,.61139914E-4,.9E-6,0
GEO-KOMPSAT-2A,2018-100A,2026-06-25T13:12:34.329312,1.00270706,.00024544,0.0444,160.6969,290.4796,148.9093,0,U,43823,999,2771,0,-.334E-5,0
METEOR-M2 2,2019-038A,2026-06-25T14:29:42.118944,14.24367200,.00017607,98.9146,164.0134,35.4215,324.7080,0,U,44387,999,36249,-.22708088E-4,-.98E-6,0
ARKTIKA-M 1,2021-016A,2026-06-24T11:15:18.372960,2.00620016,.7291,63.2470,56.5720,269.9787,14.5750,0,U,47719,999,3893,0,-.298E-5,0
FENGYUN 3E,2021-062A,2026-06-25T14:05:39.309792,14.19903788,.000282,98.7495,179.9016,71.5117,288.6366,0,U,49008,999,25777,-.76194875E-4,-.206E-5,0
GOES 18,2022-021A,2026-06-25T11:56:55.705344,1.00272786,.00006351,0.0144,173.5411,310.4795,191.8368,0,U,51850,999,667,0,.107E-5,0
NOAA 21 (JPSS-2),2022-150A,2026-06-25T11:48:55.737792,14.19537898,.00021611,98.7060,115.1419,141.0132,219.1200,0,U,54234,999,18772,.39411033E-4,.4E-6,0
METEOSAT-12 (MTG-I1),2022-170C,2026-06-25T07:27:55.260000,1.00275063,.00035966,0.7475,24.3068,71.3787,289.3980,0,U,54743,999,1305,0,.2E-7,0
TIANMU-1 03,2023-039A,2026-06-25T14:04:12.266112,15.47507603,.00040009,97.5233,350.8857,79.2418,280.9282,0,U,55973,999,18213,.34254662E-3,.17524E-3,0
TIANMU-1 04,2023-039B,2026-06-25T13:44:21.640416,15.48114178,.00044747,97.5170,350.0255,72.7296,287.4443,0,U,55974,999,18214,.35959768E-3,.18797E-3,0
TIANMU-1 05,2023-039C,2026-06-25T13:37:05.788704,15.47432066,.00040122,97.5214,350.4780,94.4122,265.7586,0,U,55975,999,18211,.35438879E-3,.18087E-3,0
TIANMU-1 06,2023-039D,2026-06-25T15:23:03.899040,15.48018227,.00041745,97.5223,351.1985,89.2070,270.9658,0,U,55976,999,18215,.35744019E-3,.1862E-3,0
FENGYUN 3G,2023-055A,2026-06-25T14:25:09.958944,15.52981515,.00072224,49.9933,302.6591,331.7912,28.2663,0,U,56232,999,18131,.41707148E-3,.26162E-3,0
METEOR-M2 3,2023-091A,2026-06-25T14:24:17.955648,14.24047424,.00047641,98.6079,231.4064,134.7604,225.3964,0,U,57166,999,15571,.17596665E-4,-.3E-7,0
TIANMU-1 07,2023-101A,2026-06-25T14:28:37.294752,15.29898244,.00043369,97.2594,227.0782,104.3648,255.8074,0,U,57399,999,16293,.26173369E-3,.7505E-4,0
TIANMU-1 08,2023-101B,2026-06-25T13:40:33.139200,15.29902313,.00057062,97.2583,226.8149,95.1480,265.0412,0,U,57400,999,16292,.26535941E-3,.7613E-4,0
TIANMU-1 09,2023-101C,2026-06-25T14:50:36.009312,15.29936584,.00049041,97.2541,226.2740,107.9813,252.1962,0,U,57401,999,16293,.27448709E-3,.7885E-4,0
TIANMU-1 10,2023-101D,2026-06-25T14:04:13.792800,15.29908317,.00064361,97.2621,227.3015,104.8469,255.3485,0,U,57402,999,16292,.26436189E-3,.7586E-4,0
FENGYUN 3F,2023-111A,2026-06-25T15:23:40.849728,14.19940391,.00015603,98.6834,246.4927,87.0481,273.0874,0,U,57490,999,15006,.38281616E-4,.38E-6,0
ARKTIKA-M 2,2023-198A,2026-06-23T17:46:44.121216,2.00611379,.69049491,63.2421,153.6337,267.3888,18.7567,0,U,58584,999,1845,0,.167E-5,0
TIANMU-1 11,2023-205A,2026-06-25T13:44:00.533760,15.27075207,.00079225,97.3447,197.9974,347.0217,13.0817,0,U,58645,999,13880,.24059253E-3,.6322E-4,0
TIANMU-1 12,2023-205B,2026-06-25T14:35:58.301952,15.27042632,.00057229,97.3436,197.7870,331.1328,28.9594,0,U,58646,999,13879,.25981271E-3,.6824E-4,0
TIANMU-1 13,2023-205C,2026-06-25T13:49:06.571200,15.26894624,.00051314,97.3464,198.0288,304.7616,55.3139,0,U,58647,999,13878,.24417059E-3,.6379E-4,0
TIANMU-1 14,2023-205D,2026-06-25T15:01:49.220832,15.26939981,.00060203,97.3400,197.2536,310.2475,49.8237,0,U,58648,999,13879,.2455788E-3,.6426E-4,0
TIANMU-1 19,2023-208A,2026-06-25T14:01:10.100352,15.31690961,.00034423,97.4506,292.9274,287.5865,72.5000,0,U,58660,999,13861,.32149501E-3,.9763E-4,0
